{
"type": "FeatureCollection",
"name": "deforestation_polygons",
"crs": { "type": "name", "properties": { "name": "urn:ogc:def:crs:OGC:1.3:CRS84" } },
"features": [
{ "type": "Feature", "properties": { }, "geometry": { "type": "Polygon", "coordinates": [ [ [ -63.399866960993926, -30.348714281806036 ], [ -63.399598677618897, -30.348481205003079 ], [ -63.399062110868833, -30.348481205003079 ], [ -63.398793827493797, -30.348248128200122 ], [ -63.398793827493797, -30.348481205003079 ], [ -63.399062110868833, -30.348714281806036 ], [ -63.399330394243862, -30.348481205003079 ], [ -63.399598677618897, -30.348481205003079 ], [ -63.399866960993926, -30.348714281806036 ] ] ] } },
{ "type": "Feature", "properties": { }, "geometry": { "type": "Polygon", "coordinates": [ [ [ -63.389672192742701, -30.384141955855473 ], [ -63.389403909367665, -30.384375032658429 ], [ -63.388867342617601, -30.383908879052516 ], [ -63.388867342617601, -30.383675802249559 ], [ -63.389135625992637, -30.383442725446599 ], [ -63.389403909367665, -30.383442725446599 ], [ -63.389672192742701, -30.383675802249559 ], [ -63.389672192742701, -30.384141955855473 ] ] ] } },
{ "type": "Feature", "properties": { }, "geometry": { "type": "Polygon", "coordinates": [ [ [ -63.390477042867794, -30.384141955855473 ], [ -63.390208759492765, -30.384375032658429 ], [ -63.389940476117729, -30.384141955855473 ], [ -63.389940476117729, -30.383908879052516 ], [ -63.390208759492765, -30.383675802249559 ], [ -63.390477042867794, -30.383908879052516 ], [ -63.390477042867794, -30.384141955855473 ] ] ] } },
{ "type": "Feature", "properties": { }, "geometry": { "type": "Polygon", "coordinates": [ [ [ -63.391281892992893, -30.388803491914608 ], [ -63.391550176367922, -30.388570415111651 ], [ -63.392891593243085, -30.388570415111651 ], [ -63.393159876618121, -30.388337338308695 ], [ -63.394501293493278, -30.388337338308695 ], [ -63.394769576868313, -30.388104261505738 ], [ -63.395306143618377, -30.388104261505738 ], [ -63.395306143618377, -30.385773493476169 ], [ -63.39691584386857, -30.384375032658429 ], [ -63.39691584386857, -30.383675802249559 ], [ -63.396647560493541, -30.383675802249559 ], [ -63.396647560493541, -30.383908879052516 ], [ -63.396110993743477, -30.384375032658429 ], [ -63.396110993743477, -30.384608109461386 ], [ -63.395842710368441, -30.384841186264342 ], [ -63.395574426993413, -30.384841186264342 ], [ -63.395037860243342, -30.384375032658429 ], [ -63.395037860243342, -30.383209648643643 ], [ -63.394769576868313, -30.382976571840686 ], [ -63.394501293493278, -30.382976571840686 ], [ -63.394233010118249, -30.383209648643643 ], [ -63.392623309868057, -30.383209648643643 ], [ -63.392355026493021, -30.382976571840686 ], [ -63.392086743117993, -30.383209648643643 ], [ -63.390477042867794, -30.383209648643643 ], [ -63.390477042867794, -30.383442725446599 ], [ -63.390208759492765, -30.383675802249559 ], [ -63.389940476117729, -30.383442725446599 ], [ -63.389940476117729, -30.383209648643643 ], [ -63.387794209117473, -30.383209648643643 ], [ -63.388062492492502, -30.383209648643643 ], [ -63.388867342617601, -30.383908879052516 ], [ -63.388867342617601, -30.384141955855473 ], [ -63.388599059242566, -30.384375032658429 ], [ -63.388599059242566, -30.385074263067299 ], [ -63.388867342617601, -30.385307339870256 ], [ -63.388867342617601, -30.385773493476169 ], [ -63.389135625992637, -30.386006570279125 ], [ -63.389135625992637, -30.386239647082082 ], [ -63.390208759492765, -30.386239647082082 ], [ -63.390477042867794, -30.386472723885039 ], [ -63.391281892992893, -30.386472723885039 ], [ -63.391550176367922, -30.386705800687995 ], [ -63.390745326242829, -30.387405031096868 ], [ -63.390208759492765, -30.387405031096868 ], [ -63.389940476117729, -30.387171954293912 ], [ -63.389135625992637, -30.387171954293912 ], [ -63.388867342617601, -30.386938877490952 ], [ -63.388330775867537, -30.386938877490952 ], [ -63.388062492492502, -30.386705800687995 ], [ -63.388062492492502, -30.388803491914608 ], [ -63.388599059242566, -30.388803491914608 ], [ -63.388867342617601, -30.388570415111651 ], [ -63.389135625992637, -30.388570415111651 ], [ -63.389403909367665, -30.388803491914608 ], [ -63.391281892992893, -30.388803491914608 ] ] ] } },
{ "type": "Feature", "properties": { }, "geometry": { "type": "Polygon", "coordinates": [ [ [ -63.415695680120834, -30.389502722323478 ], [ -63.415427396745805, -30.389735799126434 ], [ -63.41515911337077, -30.389502722323478 ], [ -63.415427396745805, -30.389269645520521 ], [ -63.415695680120834, -30.389502722323478 ] ] ] } },
{ "type": "Feature", "properties": { }, "geometry": { "type": "Polygon", "coordinates": [ [ [ -63.415427396745805, -30.389735799126434 ], [ -63.41515911337077, -30.389968875929391 ], [ -63.414890829995741, -30.389968875929391 ], [ -63.414622546620706, -30.389735799126434 ], [ -63.414890829995741, -30.389502722323478 ], [ -63.41515911337077, -30.389502722323478 ], [ -63.415427396745805, -30.389735799126434 ] ] ] } },
{ "type": "Feature", "properties": { }, "geometry": { "type": "Polygon", "coordinates": [ [ [ -63.414622546620706, -30.391367336747134 ], [ -63.413817696495606, -30.391367336747134 ], [ -63.413817696495606, -30.391134259944177 ], [ -63.414085979870642, -30.391367336747134 ], [ -63.41435426324567, -30.391134259944177 ], [ -63.41435426324567, -30.390901183141221 ], [ -63.414622546620706, -30.391134259944177 ], [ -63.414890829995741, -30.391134259944177 ], [ -63.414622546620706, -30.391367336747134 ] ] ] } },
{ "type": "Feature", "properties": { }, "geometry": { "type": "Polygon", "coordinates": [ [ [ -63.417305380371026, -30.391367336747134 ], [ -63.415427396745805, -30.391367336747134 ], [ -63.415427396745805, -30.391134259944177 ], [ -63.415963963495869, -30.390668106338264 ], [ -63.415963963495869, -30.390435029535304 ], [ -63.415695680120834, -30.390201952732347 ], [ -63.415427396745805, -30.390435029535304 ], [ -63.41515911337077, -30.390435029535304 ], [ -63.414890829995741, -30.390668106338264 ], [ -63.414622546620706, -30.390435029535304 ], [ -63.413817696495606, -30.390435029535304 ], [ -63.413281129745542, -30.390901183141221 ], [ -63.413281129745542, -30.391134259944177 ], [ -63.412744562995478, -30.391134259944177 ], [ -63.412476279620449, -30.391367336747134 ], [ -63.412476279620449, -30.390901183141221 ], [ -63.412207996245414, -30.390668106338264 ], [ -63.412207996245414, -30.390201952732347 ], [ -63.411939712870385, -30.389968875929391 ], [ -63.412207996245414, -30.389735799126434 ], [ -63.412207996245414, -30.389502722323478 ], [ -63.412744562995478, -30.389968875929391 ], [ -63.413012846370513, -30.389735799126434 ], [ -63.413012846370513, -30.389269645520521 ], [ -63.413281129745542, -30.389502722323478 ], [ -63.413549413120577, -30.389269645520521 ], [ -63.413549413120577, -30.389036568717565 ], [ -63.41435426324567, -30.389036568717565 ], [ -63.414622546620706, -30.389269645520521 ], [ -63.414890829995741, -30.389269645520521 ], [ -63.41515911337077, -30.389036568717565 ], [ -63.415427396745805, -30.389036568717565 ], [ -63.415695680120834, -30.388803491914608 ], [ -63.416500530245933, -30.388803491914608 ], [ -63.417305380371026, -30.389502722323478 ], [ -63.417305380371026, -30.391367336747134 ] ] ] } },
{ "type": "Feature", "properties": { }, "geometry": { "type": "Polygon", "coordinates": [ [ [ -63.388599059242566, -30.399058871244709 ], [ -63.388062492492502, -30.399058871244709 ], [ -63.388062492492502, -30.396961180018096 ], [ -63.388867342617601, -30.396961180018096 ], [ -63.388867342617601, -30.397660410426969 ], [ -63.388599059242566, -30.397893487229926 ], [ -63.388599059242566, -30.399058871244709 ] ] ] } },
{ "type": "Feature", "properties": { }, "geometry": { "type": "Polygon", "coordinates": [ [ [ -63.404427778369474, -30.402788100092017 ], [ -63.404159494994445, -30.403021176894974 ], [ -63.40389121161941, -30.402788100092017 ], [ -63.404159494994445, -30.402555023289061 ], [ -63.404427778369474, -30.402788100092017 ] ] ] } },
{ "type": "Feature", "properties": { }, "geometry": { "type": "Polygon", "coordinates": [ [ [ -63.403622928244381, -30.403254253697931 ], [ -63.40389121161941, -30.403021176894974 ], [ -63.404427778369474, -30.403021176894974 ], [ -63.404427778369474, -30.402088869683148 ], [ -63.403354644869346, -30.402088869683148 ], [ -63.403354644869346, -30.402321946486104 ], [ -63.403622928244381, -30.402088869683148 ], [ -63.40389121161941, -30.402321946486104 ], [ -63.40389121161941, -30.402555023289061 ], [ -63.403622928244381, -30.402788100092017 ], [ -63.403086361494317, -30.402788100092017 ], [ -63.402818078119282, -30.402555023289061 ], [ -63.402818078119282, -30.403254253697931 ], [ -63.403622928244381, -30.403254253697931 ] ] ] } },
{ "type": "Feature", "properties": { }, "geometry": { "type": "Polygon", "coordinates": [ [ [ -63.393696443368185, -30.409081173771852 ], [ -63.393696443368185, -30.407915789757066 ], [ -63.393964726743214, -30.407682712954109 ], [ -63.393964726743214, -30.40698348254524 ], [ -63.393696443368185, -30.406750405742283 ], [ -63.393696443368185, -30.404186560909757 ], [ -63.393964726743214, -30.4039534841068 ], [ -63.393964726743214, -30.403254253697931 ], [ -63.393696443368185, -30.403021176894974 ], [ -63.393696443368185, -30.402788100092017 ], [ -63.393696443368185, -30.405818098530457 ], [ -63.39342815999315, -30.406051175333413 ], [ -63.39342815999315, -30.407449636151153 ], [ -63.393696443368185, -30.407682712954109 ], [ -63.393696443368185, -30.408381943362983 ], [ -63.39342815999315, -30.408615020165939 ], [ -63.393696443368185, -30.408848096968896 ], [ -63.393696443368185, -30.409081173771852 ] ] ] } }
]
}
